ESTCUBE 1               
1 39161U 13021C   21126.96427829  .00000205  00000-0  40090-4 0  9990
2 39161  97.9409 209.1095 0008193 288.3683  71.6626 14.72466872429645
FENGYUN 3C              
1 39260U 13052A   21127.07707869 -.00000009  00000-0  16445-4 0  9992
2 39260  98.5028 169.6779 0011386  11.8738 348.2714 14.15866594394415
CASSIOPE                
1 39265U 13055A   21126.86894112  .00003951  00000-0  10792-3 0  9990
2 39265  80.9664 335.7392 0650818  75.8976 291.3611 14.32008307394043
ZACUBE-1 (TSHEPISOSAT)  
1 39417U 13066B   21126.91268797  .00000243  00000-0  36792-4 0  9991
2 39417  97.5911 113.3969 0057212 298.1566  61.3874 14.81495398402922
CINEMA-3 (KHUSAT-2)     
1 39426U 13066L   21126.86687895  .00000151  00000-0  31160-4 0  9991
2 39426  97.7520  80.8728 0105606  98.3413 262.9783 14.69665236399540
TRITON-1                
1 39427U 13066M   21127.08552808  .00000221  00000-0  42702-4 0  9994
2 39427  97.7718  76.9171 0114552 122.8340 238.3957 14.68212219399346
DELFI-N3XT              
1 39428U 13066N   21126.84072453  .00000343  00000-0  61580-4 0  9991
2 39428  97.7770  75.1423 0120719 136.3218 224.7619 14.67966888398869
GOMX-1                  
1 39430U 13066Q   21127.19468807  .00000246  00000-0  53760-4 0  9998
2 39430  97.8131  52.6346 0149055 244.7455 113.8237 14.59595977397028
BRITE-PL1 (LEM)         
1 39431U 13066R   21127.17704477  .00000051  00000-0  20701-4 0  9996
2 39431  97.7573  10.7263 0203185  46.6574 315.1354 14.47135607393803
ICUBE-1                 
1 39432U 13066S   21127.01416512  .00000385  00000-0  44079-4 0  9994
2 39432  97.4772 147.2292 0031852 178.3295 181.8036 14.90850427405343
HUMSAT-D                
1 39433U 13066T   21127.02674406  .00000689  00000-0  71154-4 0  9995
2 39433  97.4731 154.0711 0031056 157.8045 202.4527 14.92851683405748
VELOX-PII               
1 39438U 13066Y   21126.94039726  .00000226  00000-0  36897-4 0  9992
2 39438  97.6397 103.9895 0069853 341.7872  18.0839 14.78204241400947
FIRST-MOVE              
1 39439U 13066Z   21127.17896578  .00000533  00000-0  70569-4 0  9990
2 39439  97.5968 115.0123 0063206 295.2661  64.2012 14.82561833402928
CUBEBUG-2 (LO-74)       
1 39440U 13066AA  21126.90241428  .00000251  00000-0  41589-4 0  9997
2 39440  97.6729  98.3052 0080262  11.4705 348.8310 14.76223210400295
NEE-02 KRYSAOR          
1 39441U 13066AB  21126.86665280  .00000192  00000-0  34162-4 0  9992
2 39441  97.6825  95.6299 0082126  22.3080 338.1668 14.75167903400084
FUNCUBE-1 (AO-73)       
1 39444U 13066AE  21126.92219861  .00000303  00000-0  43321-4 0  9993
2 39444  97.5820 115.7624 0056143 288.4802  71.0316 14.82398174401284
HINCUBE                 
1 39445U 13066AF  21126.92542559  .00000309  00000-0  44195-4 0  9993
2 39445  97.5835 115.6175 0056199 290.3008  69.2172 14.82228901401236
UWE-3                   
1 39446U 13066AG  21126.87853121  .00000274  00000-0  42810-4 0  9991
2 39446  97.6343 105.2576 0069104 336.1313  23.6699 14.78761936400366
AIST-1 (RS-41)          
1 39492U 13078C   21127.19808294  .00000226  00000-0  21838-4 0  9996
2 39492  82.4180 265.1476 0020485  16.6897 343.4995 14.88022732399363
SPROUT                  
1 39770U 14029E   21127.26618843  .00000674  00000-0  78796-4 0  9991
2 39770  97.9110 238.5881 0008678 353.6558   6.4562 14.88359378377213
UNISAT-6                
1 40012U 14033C   21126.76066344  .00000209  00000-0  38052-4 0  9999
2 40012  97.6800 331.3664 0059044  36.4032 324.1170 14.74294801370058
BUGSAT-1 (TITA)         
1 40014U 14033E   21126.94617112  .00000418  00000-0  42998-4 0  9992
2 40014  98.1089 105.0147 0030392 303.9155  55.9185 14.95719433375360
DUCHIFAT-1              
1 40021U 14033M   21126.80135993  .00000351  00000-0  41123-4 0  9992
2 40021  97.9701  66.5587 0011600 306.5487  53.4662 14.91300190374075
NANOSATC-BR1            
1 40024U 14033Q   21126.87613838  .00000337  00000-0  40468-4 0  9996
2 40024  97.9497  61.8549 0011041 312.5773  47.4512 14.90405037373408
QB50P1                  
1 40025U 14033R   21126.76698732  .00000315  00000-0  39120-4 0  9990
2 40025  97.9318  57.3477 0011481 321.6371  38.4028 14.89413104373217
DTUSAT-2                
1 40030U 14033W   21126.55549347  .00000285  00000-0  36318-4 0  9992
2 40030  97.9154  53.8133 0010903 318.7836  41.2557 14.88966578373599
QB50P2                  
1 40032U 14033Y   21127.05511671  .00000270  00000-0  34794-4 0  9999
2 40032  97.9162  54.3187 0010798 318.2064  41.8327 14.88923587373656
POLYITAN-1              
1 40042U 14033AJ  21127.08210248  .00000401  00000-0  48427-4 0  9993
2 40042  97.9412  58.4345 0013517 310.6114  49.3926 14.89216437373669
TIGRISAT                
1 40043U 14033AK  21126.45156793  .00000159  00000-0  30505-4 0  9996
2 40043  97.6771 332.4653 0060702  35.3472 325.1739 14.74520531369948
AISAT                   
1 40054U 14034B   21126.92015677  .00000460  00000-0  70812-4 0  9996
2 40054  98.3173 278.6333 0013079 170.8912 189.2537 14.78389557369398
CANX-4                  
1 40055U 14034C   21127.17588288  .00000113  00000-0  24867-4 0  9992
2 40055  98.2995 267.3993 0013639 206.5887 153.4623 14.75042095368856
CANX-5                  
1 40056U 14034D   21127.11263018  .00000136  00000-0  28193-4 0  9999
2 40056  98.2996 267.3214 0013649 207.0744 152.9754 14.75033528368842
VELOX-I                 
1 40057U 14034E   21127.17396007  .00000367  00000-0  58320-4 0  9992
2 40057  98.3227 279.9249 0010866 182.6023 177.5123 14.78148071369447
METEOR-M 2              
1 40069U 14037A   21127.09367207 -.00000041  00000-0  42322-6 0  9996
2 40069  98.4647 157.7387 0006901  67.5021 292.6892 14.20683745354161
DX1                     
1 40071U 14037C   21127.18432698  .00000114  00000-0  22133-4 0  9992
2 40071  98.4562 329.5648 0008464 171.8984 188.2363 14.81486744369180
UKUBE-1                 
1 40074U 14037F   21127.12949116  .00000357  00000-0  49486-4 0  9996
2 40074  98.4342 340.5309 0004799 146.0544 214.0970 14.84529071369770
FIREBIRD 3              
1 40377U 15003B   21126.94420477  .00001581  00000-0  61468-4 0  9993
2 40377  99.0932 259.5079 0117386 312.3258  46.8073 15.22149957346479
FIREBIRD 4              
1 40378U 15003C   21127.18489779  .00001625  00000-0  62931-4 0  9996
2 40378  99.0937 259.9327 0117469 311.3312  47.7857 15.22201047346522
GRIFEX                  
1 40379U 15003D   21127.13827921  .00001058  00000-0  46811-4 0  9996
2 40379  99.0892 249.5509 0128382 343.2829  16.4186 15.17897364345921
CP10 (EXOCUBE)          
1 40380U 15003E   21126.87435062  .00000943  00000-0  44368-4 0  9996
2 40380  99.0904 243.8321 0134373   2.6087 357.5811 15.15606306345516
DEORBITSAIL             
1 40719U 15032E   21127.22617161  .00000417  00000-0  65721-4 0  9998
2 40719  97.8333  13.2424 0014783 239.2077 120.7679 14.77332307313898
NUDT-PHONESAT           
1 40900U 15049B   21127.13962218  .00003308  00000-0  13074-3 0  9999
2 40900  97.4223 141.5325 0010154 288.5721 143.7868 15.26167271312525
XW-2A                   
1 40903U 15049E   21127.17965223  .00003492  00000-0  75664-4 0  9993
2 40903  97.2397 181.7855 0013116 157.7337 280.2796 15.45031586316423
XW-2C                   
1 40906U 15049H   21127.12419954  .00001058  00000-0  57390-4 0  9998
2 40906  97.4868 129.9977 0013983 337.9052  86.9393 15.16673015311301
XW-2D                   
1 40907U 15049J   21127.19302263  .00001175  00000-0  62837-4 0  9992
2 40907  97.4863 129.8468 0013131 334.5222  90.0348 15.16984699311341
LILACSAT-2              
1 40908U 15049K   21127.18152870  .00000709  00000-0  42135-4 0  9990
2 40908  97.5048 127.7382 0015321 348.8560  77.0695 15.14400764310989
XW-2E                   
1 40909U 15049L   21127.21342800  .00001547  00000-0  76224-4 0  9996
2 40909  97.4680 133.8240 0011955 320.3485 102.7139 15.19418848311675
XW-2F                   
1 40910U 15049M   21127.20368140  .00001611  00000-0  80306-4 0  9990
2 40910  97.4733 132.8901 0013131 319.9166 105.4871 15.18921821311466
XW-2B                   
1 40911U 15049N   21127.19377523  .00001176  00000-0  63006-4 0  9998
2 40911  97.4857 130.5339 0013013 335.5376  90.2058 15.16902386311236
KAITUO 1B               
1 40912U 15049P   21127.20398542  .00001777  00000-0  82090-4 0  9996
2 40912  97.4467 137.2521 0012633 289.8463 136.7354 15.21443136311926
TIANWANG 1A (TW-1A)     
1 40928U 15051D   21127.22414438  .00004664  00000-0  98959-4 0  9990
2 40928  97.0803 153.1230 0011549  85.7404 338.5795 15.45462242315324
LAPAN-A2                
1 40931U 15052B   21127.00642277  .00001015  00000-0  52383-4 0  9993
2 40931   5.9967 188.0171 0012293 174.3459 185.7793 14.76678183303165
LQSAT                   
1 40958U 15057A   21127.17995716  .00000027  00000-0  11617-4 0  9991
2 40958  97.8058 185.1872 0017814 184.5353 175.5703 14.73171521300167
ATHENOXAT 1             
1 41168U 15077C   21126.60289669  .00002768  00000-0  10550-3 0  9995
2 41168  14.9891 208.6503 0011618 315.4524  83.2412 15.15569081298425
GALASSIA                
1 41170U 15077E   21126.45418537  .00001925  00000-0  61958-4 0  9992
2 41170  14.9878 200.5740 0012211 337.2236  22.7544 15.15790039298477
VELOX-II                
1 41171U 15077F   21126.49528986  .00001730  00000-0  58758-4 0  9995
2 41171  14.9908 256.2680 0008542 211.7400 148.2406 15.12469959297914
CHUBUSAT-2              
1 41338U 16012B   21127.15778674  .00000372  00000-0  22052-4 0  9994
2 41338  31.0030  88.4902 0013587  84.6841 275.5344 15.00509601286399
CHUBUSAT-3              
1 41339U 16012C   21127.18487657  .00000374  00000-0  22115-4 0  9998
2 41339  31.0111  85.5857 0013291  91.8606 268.3556 15.00658721286391
HORYU-4                 
1 41340U 16012D   21127.21362895  .00000582  00000-0  36860-4 0  9993
2 41340  31.0056  69.4838 0013747 123.8921 236.3024 15.01857536286585
